JB-3 2 (ZY 2B)          
1 27550U 02049A   14342.51510642  .00193690  00000-0  98526-3 0  7160
2 27550  97.1285 333.6863 0005389 118.7609 340.4967 15.80899236676780
MIDORI II (ADEOS-II)    
1 27597U 02056A   14341.98855208  .00000309  00000-0  14372-3 0  4695
2 27597  98.2784 340.5719 0001852 129.0750 284.0379 14.26942730623887
H-2A R/B                
1 27601U 02056E   14341.89078987  .00000254  00000-0  10832-3 0  2517
2 27601  98.4708  60.4501 0073339 145.4347 346.7062 14.31484287625848
CZ-4B R/B               
1 28059U 03049C   14341.64284539  .00000280  00000-0  80049-4 0  2318
2 28059  98.6794 186.3411 0050742 174.7882 226.4273 14.52230050589761
CZ-2C R/B               
1 28222U 04012C   14341.87436727  .00007273  00000-0  50031-3 0  4109
2 28222  97.3989 309.3814 0054853 105.6374 285.2568 15.04947003581634
SL-16 R/B               
1 28353U 04021B   14341.92835236  .00000082  00000-0  67932-4 0  9002
2 28353  70.9990 212.4806 0004670 183.1907 234.7272 14.14097977541787
CZ-2C R/B               
1 28480U 04046B   14342.04966196  .00000152  00000-0  72674-4 0  5041
2 28480  98.1118 124.8776 0143426  68.0477  48.2996 14.25402248522851
ARIANE 5 R/B            
1 28499U 04049H   14341.83402763  .00000680  00000-0  93303-4 0  1667
2 28499  98.1791  38.7739 0092428 309.6791 181.7912 14.79110857537609
CZ-2D R/B               
1 28738U 05024B   14341.86107749  .00006216  00000-0  40960-3 0  9193
2 28738  97.6110  15.5264 0011820 290.8273  69.1688 15.07809557516625
SUZAKU (ASTRO-EII)      
1 28773U 05025A   14341.89330911  .00006788  00000-0  39610-3 0  4273
2 28773  31.3823 141.0095 0005294 114.3363  12.7398 15.10598004517466
ALOS (DAICHI)           
1 28931U 06002A   14341.54077620  .00001419  00000-0  29497-3 0  1255
2 28931  97.9620  33.3663 0001400  47.9919 312.1403 14.61517068472642
H-2A R/B                
1 28932U 06002B   14341.84684472  .00003789  00000-0  37810-3 0  8761
2 28932  98.2776 210.1973 0095871  87.9959  40.3664 14.88789561480412
AKARI (ASTRO-F)         
1 28939U 06005A   14342.22692034  .00018941  00000-0  79664-3 0  6292
2 28939  98.1903  79.1998 0142410 120.3547 295.8271 15.14599166472756
RESURS-DK 1             
1 29228U 06021A   14342.39578674  .00001676  00000-0  13829-3 0  4985
2 29228  69.9393 281.8465 0007389 293.0348  67.0042 15.01055572469711
GENESIS 1               
1 29252U 06029A   14342.32785891  .00006859  00000-0  39465-3 0  4054
2 29252  64.5093  49.5119 0048892 293.5279 130.9231 15.12241936462157
CZ-4B R/B               
1 29507U 06046C   14341.92293886  .00003654  00000-0  31083-3 0  6992
2 29507  97.7618 334.4745 0041405 121.1719 239.3573 14.97789347442842
ATLAS 5 CENTAUR R/B     
1 30778U 07006G   14342.23970201  .00572277  12937-3  15849-2 0  2049
2 30778  35.6761  57.6693 0011231  73.3988 321.4929 15.92674888432161
CZ-2C R/B               
1 31114U 07010B   14341.94641995  .00000191  00000-0  10880-3 0  1249
2 31114  98.3915 275.3724 0059971  13.0947 347.1771 14.19066308396716
COSMO-SKYMED 1          
1 31598U 07023A   14342.52190901  .00000446  00000-0  62609-4 0  3365
2 31598  97.8774 164.3207 0001204  71.3542 288.7808 14.82158492405927
GENESIS 2               
1 31789U 07028A   14342.18801572  .00006612  00000-0  39630-3 0  1149
2 31789  64.5088  84.6935 0016239 334.7945  25.2381 15.11687214409260
COSMOS 2428             
1 31792U 07029A   14342.54242193  .00000390  00000-0  23657-3 0  2513
2 31792  70.9754 184.2998 0012399 233.2945 216.2227 14.12491372383931
SL-16 R/B               
1 31793U 07029B   14341.68886516 -.00000187  00000-0 -72566-4 0  1396
2 31793  70.9754 166.7607 0002234 282.5735 127.2506 14.14305165384281
KORONAS-FOTON           
1 33504U 09003A   14341.85575508  .00004035  00000-0  23368-3 0  1947
2 33504  82.4459  68.0748 0021427  54.3744  85.1207 15.11758472321948
TIANGONG 1              
1 37820U 11053A   14342.43640149  .00042499  00000-0  44266-3 0  6434
2 37820  42.7709 340.8886 0017348 265.8055 247.8468 15.63632768183415
CUSAT 2 & FALCON 9 R/B  
1 39271U 13055G   14341.25026245  .00035723  00000-0  10648-2 0  4069
2 39271  80.9794 239.5815 0732157  15.0960 347.0833 14.13258751 60900
